[{"CCSDS_OMM_VERS":"3.0","COMMENT":"GENERATED VIA SPACE-TRACK.ORG API","CREATION_DATE":"2026-03-28T16:36:19","ORIGINATOR":"18 SPCS","OBJECT_NAME":"COSMOS 2251 DEB","OBJECT_ID":"1993-036VU","CENTER_NAME":"EARTH","REF_FRAME":"TEME","TIME_SYSTEM":"UTC","MEAN_ELEMENT_THEORY":"SGP4","EPOCH":"2026-03-28T09:57:44.143200","MEAN_MOTION":"14.43823533","ECCENTRICITY":"0.00486160","INCLINATION":"74.0173","RA_OF_ASC_NODE":"75.7667","ARG_OF_PERICENTER":"165.1535","MEAN_ANOMALY":"195.1063","EPHEMERIS_TYPE":"0","CLASSIFICATION_TYPE":"U","NORAD_CAT_ID":"34582","ELEMENT_SET_NO":"999","REV_AT_EPOCH":"89472","BSTAR":"0.00048282000000","MEAN_MOTION_DOT":"0.00001641","MEAN_MOTION_DDOT":"0.0000000000000","SEMIMAJOR_AXIS":"7124.030","PERIOD":"99.735","APOAPSIS":"780.530","PERIAPSIS":"711.261","OBJECT_TYPE":"DEBRIS","RCS_SIZE":"SMALL","COUNTRY_CODE":"CIS","LAUNCH_DATE":"1993-06-16","SITE":"PKMTR","DECAY_DATE":null,"FILE":"5103580","GP_ID":"317420772","TLE_LINE0":"0 COSMOS 2251 DEB","TLE_LINE1":"1 34582U 93036VU  26087.41509425  .00001641  00000-0  48282-3 0  9995","TLE_LINE2":"2 34582  74.0173  75.7667 0048616 165.1535 195.1063 14.43823533894726"},{"CCSDS_OMM_VERS":"3.0","COMMENT":"GENERATED VIA SPACE-TRACK.ORG API","CREATION_DATE":"2014-03-19T22:57:32","ORIGINATOR":"18 SPCS","OBJECT_NAME":"COSMOS 2251 DEB","OBJECT_ID":"1993-036VV","CENTER_NAME":"EARTH","REF_FRAME":"TEME","TIME_SYSTEM":"UTC","MEAN_ELEMENT_THEORY":"SGP4","EPOCH":"2014-03-18T23:32:24.244223","MEAN_MOTION":"15.81600554","ECCENTRICITY":"0.00301430","INCLINATION":"74.0681","RA_OF_ASC_NODE":"56.3424","ARG_OF_PERICENTER":"171.6887","MEAN_ANOMALY":"247.9735","EPHEMERIS_TYPE":"0","CLASSIFICATION_TYPE":"U","NORAD_CAT_ID":"34583","ELEMENT_SET_NO":"999","REV_AT_EPOCH":"27036","BSTAR":"0.03649200000000","MEAN_MOTION_DOT":"0.09468175","MEAN_MOTION_DDOT":"0.0000000000000","SEMIMAJOR_AXIS":"6704.055","PERIOD":"91.047","APOAPSIS":"346.128","PERIAPSIS":"305.712","OBJECT_TYPE":"DEBRIS","RCS_SIZE":"SMALL","COUNTRY_CODE":"CIS","LAUNCH_DATE":"1993-06-16","SITE":"PKMTR","DECAY_DATE":"2014-03-20","FILE":"1651693","GP_ID":"95456161","TLE_LINE0":"0 COSMOS 2251 DEB","TLE_LINE1":"1 34583U 93036VV  14077.98083616  .09468175  00000-0  36492-1 0  9999","TLE_LINE2":"2 34583 074.0681 056.3424 0030143 171.6887 247.9735 15.81600554270364"},{"CCSDS_OMM_VERS":"3.0","COMMENT":"GENERATED VIA SPACE-TRACK.ORG API","CREATION_DATE":"2015-03-04T15:55:41","ORIGINATOR":"18 SPCS","OBJECT_NAME":"COSMOS 2251 DEB","OBJECT_ID":"1993-036VW","CENTER_NAME":"EARTH","REF_FRAME":"TEME","TIME_SYSTEM":"UTC","MEAN_ELEMENT_THEORY":"SGP4","EPOCH":"2015-03-04T07:42:11.950559","MEAN_MOTION":"16.15741814","ECCENTRICITY":"0.00132840","INCLINATION":"73.9761","RA_OF_ASC_NODE":"62.9471","ARG_OF_PERICENTER":"42.5924","MEAN_ANOMALY":"317.3387","EPHEMERIS_TYPE":"0","CLASSIFICATION_TYPE":"U","NORAD_CAT_ID":"34584","ELEMENT_SET_NO":"999","REV_AT_EPOCH":"32189","BSTAR":"0.00700430000000","MEAN_MOTION_DOT":"0.09860544","MEAN_MOTION_DDOT":"0.0000018860000","SEMIMAJOR_AXIS":"6609.275","PERIOD":"89.123","APOAPSIS":"239.920","PERIAPSIS":"222.360","OBJECT_TYPE":"DEBRIS","RCS_SIZE":"SMALL","COUNTRY_CODE":"CIS","LAUNCH_DATE":"1993-06-16","SITE":"PKMTR","DECAY_DATE":"2015-03-04","FILE":"1835357","GP_ID":"98499918","TLE_LINE0":"0 COSMOS 2251 DEB","TLE_LINE1":"1 34584U 93036VW  15063.32097165  .09860544  18860-5  70043-2 0  9993","TLE_LINE2":"2 34584 073.9761 062.9471 0013284 042.5924 317.3387 16.15741814321895"},{"CCSDS_OMM_VERS":"3.0","COMMENT":"GENERATED VIA SPACE-TRACK.ORG API","CREATION_DATE":"2023-11-29T22:36:18","ORIGINATOR":"18 SPCS","OBJECT_NAME":"COSMOS 2251 DEB","OBJECT_ID":"1993-036VX","CENTER_NAME":"EARTH","REF_FRAME":"TEME","TIME_SYSTEM":"UTC","MEAN_ELEMENT_THEORY":"SGP4","EPOCH":"2023-11-29T20:06:24.392448","MEAN_MOTION":"16.15564587","ECCENTRICITY":"0.00147420","INCLINATION":"73.9599","RA_OF_ASC_NODE":"136.0812","ARG_OF_PERICENTER":"346.1280","MEAN_ANOMALY":"13.9559","EPHEMERIS_TYPE":"0","CLASSIFICATION_TYPE":"U","NORAD_CAT_ID":"34585","ELEMENT_SET_NO":"999","REV_AT_EPOCH":"78621","BSTAR":"0.01225200000000","MEAN_MOTION_DOT":"0.17095682","MEAN_MOTION_DDOT":"0.0000019390000","SEMIMAJOR_AXIS":"6609.759","PERIOD":"89.133","APOAPSIS":"241.368","PERIAPSIS":"221.880","OBJECT_TYPE":"DEBRIS","RCS_SIZE":"SMALL","COUNTRY_CODE":"CIS","LAUNCH_DATE":"1993-06-16","SITE":"PKMTR","DECAY_DATE":"2023-12-01","FILE":"4113453","GP_ID":"243499043","TLE_LINE0":"0 COSMOS 2251 DEB","TLE_LINE1":"1 34585U 93036VX  23333.83778232  .17095682  19390-5  12252-1 0  9998","TLE_LINE2":"2 34585  73.9599 136.0812 0014742 346.1280  13.9559 16.15564587786216"},{"CCSDS_OMM_VERS":"3.0","COMMENT":"GENERATED VIA SPACE-TRACK.ORG API","CREATION_DATE":"2011-08-03T17:08:12","ORIGINATOR":"18 SPCS","OBJECT_NAME":"COSMOS 2251 DEB","OBJECT_ID":"1993-036VY","CENTER_NAME":"EARTH","REF_FRAME":"TEME","TIME_SYSTEM":"UTC","MEAN_ELEMENT_THEORY":"SGP4","EPOCH":"2011-08-03T15:43:01.204319","MEAN_MOTION":"16.11684707","ECCENTRICITY":"0.00404230","INCLINATION":"74.0047","RA_OF_ASC_NODE":"265.3642","ARG_OF_PERICENTER":"273.6767","MEAN_ANOMALY":"86.1593","EPHEMERIS_TYPE":"0","CLASSIFICATION_TYPE":"U","NORAD_CAT_ID":"34586","ELEMENT_SET_NO":"999","REV_AT_EPOCH":"13631","BSTAR":"0.00109860000000","MEAN_MOTION_DOT":"0.01313339","MEAN_MOTION_DDOT":"0.0000018749000","SEMIMAJOR_AXIS":"6620.366","PERIOD":"89.347","APOAPSIS":"268.993","PERIAPSIS":"215.470","OBJECT_TYPE":"DEBRIS","RCS_SIZE":"SMALL","COUNTRY_CODE":"CIS","LAUNCH_DATE":"1993-06-16","SITE":"PKMTR","DECAY_DATE":"2011-08-04","FILE":"1132340","GP_ID":"84340591","TLE_LINE0":"0 COSMOS 2251 DEB","TLE_LINE1":"1 34586U 93036VY  11215.65487505  .01313339  18749-5  10986-2 0  9990","TLE_LINE2":"2 34586 074.0047 265.3642 0040423 273.6767 086.1593 16.11684707136316"},{"CCSDS_OMM_VERS":"3.0","COMMENT":"GENERATED VIA SPACE-TRACK.ORG API","CREATION_DATE":"2011-07-01T21:28:12","ORIGINATOR":"18 SPCS","OBJECT_NAME":"COSMOS 2251 DEB","OBJECT_ID":"1993-036VZ","CENTER_NAME":"EARTH","REF_FRAME":"TEME","TIME_SYSTEM":"UTC","MEAN_ELEMENT_THEORY":"SGP4","EPOCH":"2011-06-29T03:21:47.289887","MEAN_MOTION":"15.97599601","ECCENTRICITY":"0.00198830","INCLINATION":"74.0049","RA_OF_ASC_NODE":"70.8455","ARG_OF_PERICENTER":"169.7751","MEAN_ANOMALY":"190.4495","EPHEMERIS_TYPE":"0","CLASSIFICATION_TYPE":"U","NORAD_CAT_ID":"34587","ELEMENT_SET_NO":"999","REV_AT_EPOCH":"12817","BSTAR":"0.01067600000000","MEAN_MOTION_DOT":"0.04872126","MEAN_MOTION_DDOT":"0.0000000000000","SEMIMAJOR_AXIS":"6659.221","PERIOD":"90.135","APOAPSIS":"294.327","PERIAPSIS":"267.846","OBJECT_TYPE":"DEBRIS","RCS_SIZE":"SMALL","COUNTRY_CODE":"CIS","LAUNCH_DATE":"1993-06-16","SITE":"PKMTR","DECAY_DATE":"2011-06-29","FILE":"1114513","GP_ID":"83827239","TLE_LINE0":"0 COSMOS 2251 DEB","TLE_LINE1":"1 34587U 93036VZ  11180.14013067  .04872126  00000-0  10676-1 0  9992","TLE_LINE2":"2 34587 074.0049 070.8455 0019883 169.7751 190.4495 15.97599601128170"},{"CCSDS_OMM_VERS":"3.0","COMMENT":"GENERATED VIA SPACE-TRACK.ORG API","CREATION_DATE":"2026-03-28T16:36:19","ORIGINATOR":"18 SPCS","OBJECT_NAME":"COSMOS 2251 DEB","OBJECT_ID":"1993-036WA","CENTER_NAME":"EARTH","REF_FRAME":"TEME","TIME_SYSTEM":"UTC","MEAN_ELEMENT_THEORY":"SGP4","EPOCH":"2026-03-28T09:31:21.118944","MEAN_MOTION":"14.42363716","ECCENTRICITY":"0.00165360","INCLINATION":"74.0414","RA_OF_ASC_NODE":"72.4173","ARG_OF_PERICENTER":"106.9605","MEAN_ANOMALY":"43.4784","EPHEMERIS_TYPE":"0","CLASSIFICATION_TYPE":"U","NORAD_CAT_ID":"34588","ELEMENT_SET_NO":"999","REV_AT_EPOCH":"89473","BSTAR":"0.00042244000000","MEAN_MOTION_DOT":"0.00001372","MEAN_MOTION_DDOT":"0.0000000000000","SEMIMAJOR_AXIS":"7128.836","PERIOD":"99.836","APOAPSIS":"762.490","PERIAPSIS":"738.913","OBJECT_TYPE":"DEBRIS","RCS_SIZE":"SMALL","COUNTRY_CODE":"CIS","LAUNCH_DATE":"1993-06-16","SITE":"PKMTR","DECAY_DATE":null,"FILE":"5103580","GP_ID":"317421272","TLE_LINE0":"0 COSMOS 2251 DEB","TLE_LINE1":"1 34588U 93036WA  26087.39677221  .00001372  00000-0  42244-3 0  9991","TLE_LINE2":"2 34588  74.0414  72.4173 0016536 106.9605  43.4784 14.42363716894730"},{"CCSDS_OMM_VERS":"3.0","COMMENT":"GENERATED VIA SPACE-TRACK.ORG API","CREATION_DATE":"2026-03-28T16:36:19","ORIGINATOR":"18 SPCS","OBJECT_NAME":"COSMOS 2251 DEB","OBJECT_ID":"1993-036WB","CENTER_NAME":"EARTH","REF_FRAME":"TEME","TIME_SYSTEM":"UTC","MEAN_ELEMENT_THEORY":"SGP4","EPOCH":"2026-03-28T09:55:38.650656","MEAN_MOTION":"13.86302715","ECCENTRICITY":"0.02503230","INCLINATION":"73.9237","RA_OF_ASC_NODE":"235.9169","ARG_OF_PERICENTER":"158.9290","MEAN_ANOMALY":"235.1295","EPHEMERIS_TYPE":"0","CLASSIFICATION_TYPE":"U","NORAD_CAT_ID":"34589","ELEMENT_SET_NO":"999","REV_AT_EPOCH":"86176","BSTAR":"0.00081189000000","MEAN_MOTION_DOT":"0.00001178","MEAN_MOTION_DDOT":"0.0000000000000","SEMIMAJOR_AXIS":"7319.754","PERIOD":"103.873","APOAPSIS":"1124.849","PERIAPSIS":"758.388","OBJECT_TYPE":"DEBRIS","RCS_SIZE":"SMALL","COUNTRY_CODE":"CIS","LAUNCH_DATE":"1993-06-16","SITE":"PKMTR","DECAY_DATE":null,"FILE":"5103580","GP_ID":"317420773","TLE_LINE0":"0 COSMOS 2251 DEB","TLE_LINE1":"1 34589U 93036WB  26087.41364179  .00001178  00000-0  81189-3 0  9995","TLE_LINE2":"2 34589  73.9237 235.9169 0250323 158.9290 235.1295 13.86302715861767"}]